CCSDS_OMM_VERS = 2.0
CREATION_DATE  = 
ORIGINATOR     = 

OBJECT_NAME    = OKEAN-3
OBJECT_ID      = 1991-039A
CENTER_NAME    = EARTH
REF_FRAME      = TEME
TIME_SYSTEM    = UTC
MEAN_ELEMENT_THEORY = SGP/SGP4

EPOCH          = 2025-10-27T12:08:44.551680
MEAN_MOTION    = 15.03652371
ECCENTRICITY   = .0015775
INCLINATION    = 82.5144
RA_OF_ASC_NODE = 105.7818
ARG_OF_PERICENTER = 66.8142
MEAN_ANOMALY   = 293.4744

EPHEMERIS_TYPE = 0
CLASSIFICATION_TYPE = U
NORAD_CAT_ID   = 21397
ELEMENT_SET_NO = 999
REV_AT_EPOCH   = 84501
BSTAR          = .26622E-3
MEAN_MOTION_DOT = .368E-4
MEAN_MOTION_DDOT = 0

CCSDS_OMM_VERS = 2.0
CREATION_DATE  = 
ORIGINATOR     = 

OBJECT_NAME    = COSMOS 2151
OBJECT_ID      = 1991-042A
CENTER_NAME    = EARTH
REF_FRAME      = TEME
TIME_SYSTEM    = UTC
MEAN_ELEMENT_THEORY = SGP/SGP4

EPOCH          = 2025-10-27T12:20:32.583264
MEAN_MOTION    = 14.99434361
ECCENTRICITY   = .0013372
INCLINATION    = 82.4991
RA_OF_ASC_NODE = 212.0323
ARG_OF_PERICENTER = 142.4479
MEAN_ANOMALY   = 217.7682

EPHEMERIS_TYPE = 0
CLASSIFICATION_TYPE = U
NORAD_CAT_ID   = 21422
ELEMENT_SET_NO = 999
REV_AT_EPOCH   = 84323
BSTAR          = .23155E-3
MEAN_MOTION_DOT = .2867E-4
MEAN_MOTION_DDOT = 0

CCSDS_OMM_VERS = 2.0
CREATION_DATE  = 
ORIGINATOR     = 

OBJECT_NAME    = SL-14 R/B
OBJECT_ID      = 1991-042B
CENTER_NAME    = EARTH
REF_FRAME      = TEME
TIME_SYSTEM    = UTC
MEAN_ELEMENT_THEORY = SGP/SGP4

EPOCH          = 2025-10-27T12:33:10.077984
MEAN_MOTION    = 14.81678004
ECCENTRICITY   = .0016051
INCLINATION    = 82.4942
RA_OF_ASC_NODE = 345.0663
ARG_OF_PERICENTER = 322.9669
MEAN_ANOMALY   = 37.0436

EPHEMERIS_TYPE = 0
CLASSIFICATION_TYPE = U
NORAD_CAT_ID   = 21423
ELEMENT_SET_NO = 999
REV_AT_EPOCH   = 83335
BSTAR          = .66471E-4
MEAN_MOTION_DOT = .547E-5
MEAN_MOTION_DDOT = 0

CCSDS_OMM_VERS = 2.0
CREATION_DATE  = 
ORIGINATOR     = 

OBJECT_NAME    = ERS-1
OBJECT_ID      = 1991-050A
CENTER_NAME    = EARTH
REF_FRAME      = TEME
TIME_SYSTEM    = UTC
MEAN_ELEMENT_THEORY = SGP/SGP4

EPOCH          = 2025-10-27T12:12:17.875008
MEAN_MOTION    = 14.39311637
ECCENTRICITY   = .0031101
INCLINATION    = 98.7933
RA_OF_ASC_NODE = 310.4000
ARG_OF_PERICENTER = 236.3532
MEAN_ANOMALY   = 123.4687

EPHEMERIS_TYPE = 0
CLASSIFICATION_TYPE = U
NORAD_CAT_ID   = 21574
ELEMENT_SET_NO = 999
REV_AT_EPOCH   = 79657
BSTAR          = .16879E-3
MEAN_MOTION_DOT = .48E-5
MEAN_MOTION_DDOT = 0

CCSDS_OMM_VERS = 2.0
CREATION_DATE  = 
ORIGINATOR     = 

OBJECT_NAME    = ARIANE 40 R/B
OBJECT_ID      = 1991-050F
CENTER_NAME    = EARTH
REF_FRAME      = TEME
TIME_SYSTEM    = UTC
MEAN_ELEMENT_THEORY = SGP/SGP4

EPOCH          = 2025-10-27T09:22:38.968320
MEAN_MOTION    = 14.42754306
ECCENTRICITY   = .0004304
INCLINATION    = 98.2232
RA_OF_ASC_NODE = 352.4789
ARG_OF_PERICENTER = 112.1661
MEAN_ANOMALY   = 247.9987

EPHEMERIS_TYPE = 0
CLASSIFICATION_TYPE = U
NORAD_CAT_ID   = 21610
ELEMENT_SET_NO = 999
REV_AT_EPOCH   = 79977
BSTAR          = .16764E-3
MEAN_MOTION_DOT = .517E-5
MEAN_MOTION_DDOT = 0

CCSDS_OMM_VERS = 2.0
CREATION_DATE  = 
ORIGINATOR     = 

OBJECT_NAME    = INTERCOSMOS 25
OBJECT_ID      = 1991-086A
CENTER_NAME    = EARTH
REF_FRAME      = TEME
TIME_SYSTEM    = UTC
MEAN_ELEMENT_THEORY = SGP/SGP4

EPOCH          = 2025-10-27T05:36:53.769024
MEAN_MOTION    = 12.11537318
ECCENTRICITY   = .1489
INCLINATION    = 82.6089
RA_OF_ASC_NODE = 30.6764
ARG_OF_PERICENTER = 44.5986
MEAN_ANOMALY   = 326.5618

EPHEMERIS_TYPE = 0
CLASSIFICATION_TYPE = U
NORAD_CAT_ID   = 21819
ELEMENT_SET_NO = 999
REV_AT_EPOCH   = 48052
BSTAR          = .25883E-3
MEAN_MOTION_DOT = .1348E-4
MEAN_MOTION_DDOT = 0

CCSDS_OMM_VERS = 2.0
CREATION_DATE  = 
ORIGINATOR     = 

OBJECT_NAME    = SL-8 R/B
OBJECT_ID      = 1992-008B
CENTER_NAME    = EARTH
REF_FRAME      = TEME
TIME_SYSTEM    = UTC
MEAN_ELEMENT_THEORY = SGP/SGP4

EPOCH          = 2025-10-27T11:50:33.171936
MEAN_MOTION    = 13.75945669
ECCENTRICITY   = .0035609
INCLINATION    = 82.9306
RA_OF_ASC_NODE = 6.8406
ARG_OF_PERICENTER = 145.0307
MEAN_ANOMALY   = 226.6492

EPHEMERIS_TYPE = 0
CLASSIFICATION_TYPE = U
NORAD_CAT_ID   = 21876
ELEMENT_SET_NO = 999
REV_AT_EPOCH   = 69110
BSTAR          = .10043E-3
MEAN_MOTION_DOT = .113E-5
MEAN_MOTION_DDOT = 0

CCSDS_OMM_VERS = 2.0
CREATION_DATE  = 
ORIGINATOR     = 

OBJECT_NAME    = SL-8 R/B
OBJECT_ID      = 1992-020B
CENTER_NAME    = EARTH
REF_FRAME      = TEME
TIME_SYSTEM    = UTC
MEAN_ELEMENT_THEORY = SGP/SGP4

EPOCH          = 2025-10-27T12:29:39.643008
MEAN_MOTION    = 13.75519303
ECCENTRICITY   = .0028008
INCLINATION    = 82.9289
RA_OF_ASC_NODE = 252.6387
ARG_OF_PERICENTER = 311.8346
MEAN_ANOMALY   = 185.4759

EPHEMERIS_TYPE = 0
CLASSIFICATION_TYPE = U
NORAD_CAT_ID   = 21938
ELEMENT_SET_NO = 999
REV_AT_EPOCH   = 68282
BSTAR          = .61451E-4
MEAN_MOTION_DOT = .74E-6
MEAN_MOTION_DDOT = 0

CCSDS_OMM_VERS = 2.0
CREATION_DATE  = 
ORIGINATOR     = 

OBJECT_NAME    = USA 81
OBJECT_ID      = 1992-023A
CENTER_NAME    = EARTH
REF_FRAME      = TEME
TIME_SYSTEM    = UTC
MEAN_ELEMENT_THEORY = SGP/SGP4

EPOCH          = 2025-10-27T12:10:09.803424
MEAN_MOTION    = 14.32301540
ECCENTRICITY   = .0002758
INCLINATION    = 85.0117
RA_OF_ASC_NODE = 208.2302
ARG_OF_PERICENTER = 90.7737
MEAN_ANOMALY   = 269.3772

EPHEMERIS_TYPE = 0
CLASSIFICATION_TYPE = U
NORAD_CAT_ID   = 21949
ELEMENT_SET_NO = 999
REV_AT_EPOCH   = 7572
BSTAR          = .98004E-4
MEAN_MOTION_DOT = .284E-5
MEAN_MOTION_DDOT = 0

CCSDS_OMM_VERS = 2.0
CREATION_DATE  = 
ORIGINATOR     = 

OBJECT_NAME    = COSMOS 2219
OBJECT_ID      = 1992-076A
CENTER_NAME    = EARTH
REF_FRAME      = TEME
TIME_SYSTEM    = UTC
MEAN_ELEMENT_THEORY = SGP/SGP4

EPOCH          = 2025-10-27T09:22:07.271616
MEAN_MOTION    = 14.14053467
ECCENTRICITY   = .0016686
INCLINATION    = 71.0589
RA_OF_ASC_NODE = 296.7197
ARG_OF_PERICENTER = 38.8620
MEAN_ANOMALY   = 321.3698

EPHEMERIS_TYPE = 0
CLASSIFICATION_TYPE = U
NORAD_CAT_ID   = 22219
ELEMENT_SET_NO = 999
REV_AT_EPOCH   = 69953
BSTAR          = .25019E-3
MEAN_MOTION_DOT = .43E-5
MEAN_MOTION_DDOT = 0

CCSDS_OMM_VERS = 2.0
CREATION_DATE  = 
ORIGINATOR     = 

OBJECT_NAME    = SL-16 R/B
OBJECT_ID      = 1992-076B
CENTER_NAME    = EARTH
REF_FRAME      = TEME
TIME_SYSTEM    = UTC
MEAN_ELEMENT_THEORY = SGP/SGP4

EPOCH          = 2025-10-27T11:13:26.802048
MEAN_MOTION    = 14.16828725
ECCENTRICITY   = .0014944
INCLINATION    = 70.9974
RA_OF_ASC_NODE = 108.9997
ARG_OF_PERICENTER = 294.0609
MEAN_ANOMALY   = 96.8357

EPHEMERIS_TYPE = 0
CLASSIFICATION_TYPE = U
NORAD_CAT_ID   = 22220
ELEMENT_SET_NO = 999
REV_AT_EPOCH   = 70296
BSTAR          = -.19962E-4
MEAN_MOTION_DOT = -.88E-6
MEAN_MOTION_DDOT = 0

CCSDS_OMM_VERS = 2.0
CREATION_DATE  = 
ORIGINATOR     = 

OBJECT_NAME    = COSMOS 2221
OBJECT_ID      = 1992-080A
CENTER_NAME    = EARTH
REF_FRAME      = TEME
TIME_SYSTEM    = UTC
MEAN_ELEMENT_THEORY = SGP/SGP4

EPOCH          = 2025-10-27T09:17:05.492832
MEAN_MOTION    = 14.95480579
ECCENTRICITY   = .0013228
INCLINATION    = 82.5062
RA_OF_ASC_NODE = 46.6723
ARG_OF_PERICENTER = 281.2381
MEAN_ANOMALY   = 78.7353

EPHEMERIS_TYPE = 0
CLASSIFICATION_TYPE = U
NORAD_CAT_ID   = 22236
ELEMENT_SET_NO = 999
REV_AT_EPOCH   = 76086
BSTAR          = .2938E-3
MEAN_MOTION_DOT = .3281E-4
MEAN_MOTION_DDOT = 0

