OKEAN-3                 
1 21397U 91039A   25300.50607120  .00003680  00000+0  26622-3 0  9992
2 21397  82.5144 105.7818 0015775  66.8142 293.4744 15.03652371845014
COSMOS 2151             
1 21422U 91042A   25300.51426601  .00002867  00000+0  23155-3 0  9993
2 21422  82.4991 212.0323 0013372 142.4479 217.7682 14.99434361843233
SL-14 R/B               
1 21423U 91042B   25300.52303331  .00000547  00000+0  66471-4 0  9991
2 21423  82.4942 345.0663 0016051 322.9669  37.0436 14.81678004833354
ERS-1                   
1 21574U 91050A   25300.50854022  .00000480  00000+0  16879-3 0  9995
2 21574  98.7933 310.4000 0031101 236.3532 123.4687 14.39311637796571
ARIANE 40 R/B           
1 21610U 91050F   25300.39072880  .00000517  00000+0  16764-3 0  9991
2 21610  98.2232 352.4789 0004304 112.1661 247.9987 14.42754306799776
INTERCOSMOS 25          
1 21819U 91086A   25300.23395566  .00001348  00000+0  25883-3 0  9998
2 21819  82.6089  30.6764 1489000  44.5986 326.5618 12.11537318480522
SL-8 R/B                
1 21876U 92008B   25300.49343949  .00000113  00000+0  10043-3 0  9993
2 21876  82.9306   6.8406 0035609 145.0307 226.6492 13.75945669691104
SL-8 R/B                
1 21938U 92020B   25300.52059772  .00000074  00000+0  61451-4 0  9994
2 21938  82.9289 252.6387 0028008 311.8346 185.4759 13.75519303682822
USA 81                  
1 21949U 92023A   25300.50705791  .00000284  00000+0  98004-4 0  9993
2 21949  85.0117 208.2302 0002758  90.7737 269.3772 14.32301540 75721
COSMOS 2219             
1 22219U 92076A   25300.39036194  .00000430  00000+0  25019-3 0  9991
2 22219  71.0589 296.7197 0016686  38.8620 321.3698 14.14053467699532
SL-16 R/B               
1 22220U 92076B   25300.46767132 -.00000088  00000+0 -19962-4 0  9996
2 22220  70.9974 108.9997 0014944 294.0609  96.8357 14.16828725702967
COSMOS 2221             
1 22236U 92080A   25300.38686913  .00003281  00000+0  29380-3 0  9996
2 22236  82.5062  46.6723 0013228 281.2381  78.7353 14.95480579760861
